[
    {
        "Altitude(m)": 610399.5706241332,
        "Argument of Periapsis(deg)": 0.0,
        "Eccentricity": 0.0,
        "Inclination(deg)": 60.0,
        "Latitude(deg)": 52.11145022234739,
        "Longitude(deg)": 62.584216579216644,
        "Mean Anomaly(deg)": 65.45450000000001,
        "RAAN(deg)": 114.99999999999999,
        "Satellite Name": "Test1 510",
        "Satellite Number": 510,
        "Semi-Major Axis(m)": 6980739.136638005,
        "Time(s)": 0
    },
    {
        "Altitude(m)": 610481.7219150354,
        "Argument of Periapsis(deg)": 0.00010418945913296404,
        "Eccentricity": 0.0,
        "Inclination(deg)": 60.0,
        "Latitude(deg)": 52.47105340904693,
        "Longitude(deg)": 63.366353681622876,
        "Mean Anomaly(deg)": 66.07460614546181,
        "RAAN(deg)": 114.99957995086024,
        "Satellite Name": "Test1 510",
        "Satellite Number": 510,
        "Semi-Major Axis(m)": 6980739.136638005,
        "Time(s)": 10
    }
]